SCD 1                   
1 22490U 93009B   20119.08876316  .00000229  00000-0  12512-4 0  9998
2 22490  24.9712 342.4811 0042892 216.2917 278.9177 14.44575374436716
TECHSAT 1B (GO-32)      
1 25397U 98043D   20119.12479568  .00000004  00000-0  20976-4 0  9997
2 25397  98.7248  61.0151 0001228 152.7429 207.3814 14.23683622132618
SCD 2                   
1 25504U 98060A   20118.91396924  .00000230  00000-0  14064-4 0  9998
2 25504  24.9945 193.2938 0016993 233.4879 287.5604 14.44092096136258
LANDSAT 7               
1 25682U 99020A   20119.49258130  .00000029  00000-0  16257-4 0  9994
2 25682  98.0854 183.6311 0001485  70.0607 290.0755 14.57175423118962
DLR-TUBSAT              
1 25757U 99029B   20119.31636004 -.00000016  00000-0  76109-5 0  9997
2 25757  98.4257  46.7308 0014015 346.8461  13.2366 14.51418969108215
TERRA                   
1 25994U 99068A   20119.45374837  .00000104  00000-0  33110-4 0  9992
2 25994  98.2138 194.4281 0001085 107.5043 252.6275 14.57127042 83031
MAROC-TUBSAT            
1 27004U 01056D   20119.16358677 -.00000027  00000-0  19538-4 0  9991
2 27004  99.5081 253.2799 0020375 144.1025  31.7699 13.70140008919286
AQUA                    
1 27424U 02022A   20119.43457948  .00000096  00000-0  31403-4 0  9992
2 27424  98.2059  60.7939 0002457 111.8520  45.0940 14.57118189956630
IRS-P6 (RESOURCESAT-1)  
1 28051U 03046A   20119.47243402 -.00000566  00000-0 -18338-3 0  9993
2 28051  98.4846 197.0133 0058163 174.1502 186.0373 14.34169249859221
SHIYAN 1 (SY-1)         
1 28220U 04012A   20118.92682068  .00001037  00000-0  88204-4 0  9991
2 28220  97.8432  87.6005 0012500  43.0991 317.1208 15.00012326873021
FORMOSAT-2 (ROCSAT 2)   
1 28254U 04018A   20119.36782994 -.00000131  00000-0 -59987-4 0  9994
2 28254  98.7110 155.2487 0002051  70.3829 301.4614 14.00636145815056
AURA                    
1 28376U 04026A   20119.20414891  .00000112  00000-0  34848-4 0  9995
2 28376  98.2053  62.7237 0001619  84.2284 275.9099 14.57120129839606
IRS-P5 (CARTOSAT-1)     
1 28649U 05017A   20119.12787231  .00000045  00000-0  11758-4 0  9991
2 28649  97.8157 189.0840 0000623 158.4269 201.6971 14.83692366811020
SINAH 1                 
1 28893U 05043D   20119.42865893  .00000008  00000-0  10704-4 0  9994
2 28893  98.0148 251.3260 0016624  99.8515 260.4565 14.61529461773270
EROS B                  
1 29079U 06014A   20119.48210775  .00001510  00000-0  63845-4 0  9992
2 29079  97.4484 240.8113 0004747 100.1976 324.1253 15.24760598777659
RESURS-DK 1             
1 29228U 06021A   20118.95269451  .00000053  00000-0  11375-4 0  9994
2 29228  69.9352 316.5612 0005578 212.2905 147.7915 15.02531982765164
ARIRANG-2 (KOMPSAT-2)   
1 29268U 06031A   20119.50712846  .00000140  00000-0  36739-4 0  9990
2 29268  97.9952   7.3614 0016209 313.4228  46.5627 14.62272820733919
LAPAN-TUBSAT            
1 29709U 07001A   20119.34493895  .00000033  00000-0  10733-4 0  9997
2 29709  97.8561  79.8703 0011511 278.3299  81.6616 14.82216675718947
CARTOSAT-2 (IRS-P7)     
1 29710U 07001B   20119.47829232  .00000522  00000-0  66099-4 0  9990
2 29710  97.9192 180.1178 0028143 234.7561 125.1019 14.85757528717848
HAIYANG-1B              
1 31113U 07010A   20119.39071576 -.00000015  00000-0  10328-4 0  9993
2 31113  98.4090 163.5763 0013781   6.0431 354.0916 14.30241339681009
COSMO-SKYMED 1          
1 31598U 07023A   20119.45258536 -.00000331  00000-0 -35088-4 0  9996
2 31598  97.8897 303.3497 0001485  90.5750 269.5634 14.82151092697425
TERRASAR-X              
1 31698U 07026A   20118.97387993 -.00001307  00000-0 -59054-4 0  9999
2 31698  97.4462 126.7055 0001706  80.4611   7.5375 15.19143651713634
WORLDVIEW-1 (WV-1)      
1 32060U 07041A   20119.15494031  .00000696  00000-0  31224-4 0  9990
2 32060  97.3798 239.4990 0002600  97.4583 262.6950 15.24457090701517
YAOGAN 3                
1 32289U 07055A   20119.50871740 -.00000147  00000-0 -12158-4 0  9991
2 32289  97.9942 134.4748 0001656 106.8287 253.3098 14.81009776673590
COSMO-SKYMED 2          
1 32376U 07059A   20119.48634258  .00000307  00000-0  45166-4 0  9991
2 32376  97.8897 303.3845 0001507  91.0459 269.0932 14.82157046670178
RADARSAT-2              
1 32382U 07061A   20119.30157726 -.00000041  00000-0  10334-5 0  9998
2 32382  98.5770 126.6100 0001201  90.9230 318.1840 14.29983839645803
CARTOSAT-2A             
1 32783U 08021A   20119.46495627  .00000071  00000-0  16792-4 0  9997
2 32783  97.9261 180.1639 0013257 164.5441 195.6190 14.78672319647758
RAPIDEYE 2              
1 33312U 08040A   20119.12891859  .00000498  00000-0  49389-4 0  9998
2 33312  97.6925 184.9414 0012261 183.8238 176.2026 14.96078934630349
RAPIDEYE 5              
1 33313U 08040B   20118.09954723 -.00000524  00000-0 -43376-4 0  9996
2 33313  97.6941 182.8760 0016275  68.3983 291.8921 14.94369506630133
RAPIDEYE 1              
1 33314U 08040C   20118.76111375 -.00000992  00000-0 -85265-4 0  9991
2 33314  97.7122 184.7001 0025948 184.5766 175.4554 14.94809243630273
RAPIDEYE 3              
1 33315U 08040D   20118.16531628 -.00000769  00000-0 -61345-4 0  9998
2 33315  97.6968 182.9625 0003984 132.5194 227.6284 14.97309372630155
RAPIDEYE 4              
1 33316U 08040E   20118.09896136 -.00000516  00000-0 -41503-4 0  9993
2 33316  97.7019 182.8883 0008543  92.4400 267.7103 14.95455741630132
HUANJING 1A (HJ-1A)     
1 33320U 08041A   20119.54426759  .00000118  00000-0  23713-4 0  9999
2 33320  97.7921 173.2245 0025706 231.7786 128.1111 14.77060789627230
HUANJING 1B (HJ-1B)     
1 33321U 08041B   20119.54528439  .00000150  00000-0  28251-4 0  9996
2 33321  97.7997 175.4621 0033336 260.3421  99.4027 14.77221643627232
GEOEYE 1                
1 33331U 08042A   20119.51273532 -.00000012  00000-0  66257-5 0  9993
2 33331  98.1046 194.4744 0008524 203.4049 156.6770 14.64306864622225
THEOS                   
1 33396U 08049A   20119.43153610 -.00000008  00000-0  16658-4 0  9990
2 33396  98.7385 187.1190 0001139  82.5990 337.8106 14.20016066599962
COSMO-SKYMED 3          
1 33412U 08054A   20119.46947476  .00000041  00000-0  11682-4 0  9997
2 33412  97.8896 303.3676 0001430  80.2701 279.8690 14.82153200622632
YAOGAN 4                
1 33446U 08061A   20119.41585306  .00000069  00000-0  16716-4 0  9990
2 33446  97.7221  77.1086 0017094 138.5667 221.6844 14.77022823614448
GOSAT (IBUKI)           
1 33492U 09002A   20118.93529024  .00000083  00000-0  23111-4 0  9991
2 33492  98.0550 230.7186 0001158 103.0266 257.1068 14.67556142603201
YAOGAN 6                
1 34839U 09021A   20119.13122572  .00000490  00000-0  20949-4 0  9996
2 34839  97.0399 130.3745 0027280 196.9246 163.1086 15.26880491612104
DEIMOS-1                
1 35681U 09041A   20119.52446563  .00000130  00000-0  28364-4 0  9996
2 35681  97.8182 355.0126 0001370 152.1449 207.9833 14.71831354577041
DUBAISAT-1              
1 35682U 09041B   20119.47635191 -.00000176  00000-0 -22439-4 0  9997
2 35682  97.7321 300.8419 0012427  51.5002 308.7331 14.68785427575788
OCEANSAT-2              
1 35931U 09051A   20119.44621921  .00000083  00000-0  32304-4 0  9995
2 35931  98.2947 215.2753 0001855 155.4096 204.7188 14.50850873561166
WORLDVIEW-2 (WV-2)      
1 35946U 09055A   20119.50975185 -.00000018  00000-0  83135-5 0  9994
2 35946  98.3998 193.7823 0002524 125.4210 234.7212 14.37667482553840
SMOS                    
1 36036U 09059A   20119.07497946  .00000024  00000-0  21640-4 0  9993
2 36036  98.4450 306.8239 0001346  98.9900 261.1440 14.39753541551113
YAOGAN 7                
1 36110U 09069A   20119.49522249  .00000069  00000-0  18314-4 0  9991
2 36110  98.2684 314.1871 0023718  13.8070 346.3793 14.75113919559134
TANDEM-X                
1 36605U 10030A   20119.16835975 -.00002178  00000-0 -10057-3 0  9997
2 36605  97.4467 126.8989 0002092  76.2327 354.6605 15.19139065546400
CARTOSAT-2B             
1 36795U 10035A   20119.43354655  .00000064  00000-0  15746-4 0  9994
2 36795  97.9240 179.6715 0012750 242.8816 117.1098 14.78692402528796
YAOGAN 10               
1 36834U 10038A   20119.48911790  .00000010  00000-0  81339-5 0  9998
2 36834  97.9769 122.9706 0001457  89.2964 270.8417 14.80967394525333
COSMO-SKYMED 4          
1 37216U 10060A   20119.43150246  .00000010  00000-0  78227-5 0  9996
2 37216  97.8894 303.3286 0001572  85.5604 274.5787 14.82155081512715
RESOURCESAT-2           
1 37387U 11015A   20119.45459798  .00000009  00000-0  23910-4 0  9998
2 37387  98.6804 195.1067 0004552 151.6947 208.4485 14.21643558468337
HAIYANG 2A              
1 37781U 11043A   20119.46307877 -.00000021  00000-0  22105-4 0  9998
2 37781  99.3183 127.9692 0001664 102.5103 257.6235 13.78720156438157
RASAT                   
1 37791U 11044D   20119.50565086  .00000027  00000-0  13978-4 0  9996
2 37791  98.1080 213.0754 0023236  68.4753 291.8934 14.64764187464936
MEGHA-TROPIQUES         
1 37838U 11058A   20118.96204791  .00000292  00000-0  16120-4 0  9991
2 37838  19.9787 316.5526 0009387   8.7128 351.3438 14.09682793440849
SRMSAT                  
1 37841U 11058D   20119.15631446  .00000324  00000-0  33081-4 0  9999
2 37841  19.9725 291.0759 0011874  51.2988 104.1721 14.10656883441158
YAOGAN 13               
1 37941U 11072A   20119.43959400  .00000361  00000-0  20920-4 0  9999
2 37941  97.5533  55.1063 0000920 161.1907 320.4802 15.18309104466382
PLEIADES 1A             
1 38012U 11076F   20119.51713381 -.00000011  00000-0  75669-5 0  9992
2 38012  98.2013 194.6369 0000995  86.7462 273.3852 14.58555953445387
ZIYUAN 1-02C (ZY 1-02C) 
1 38038U 11079A   20119.42724307  .00000042  00000-0  30339-4 0  9990
2 38038  98.6950 171.8483 0008213  59.6562 300.5435 14.35277636437592
ZIYUAN 3 (ZY 3)         
1 38046U 12001A   20119.48716171  .00000511  00000-0  25887-4 0  9994
2 38046  97.4200 194.4296 0004054  24.9620  70.8262 15.21337307461026
